STARLINK-2514
1 18331C 21036BH  21326.18209818  .00002487  00000-0  16665-3 0  3264
2 18331  53.0554 302.9185 0001838  58.9472   3.9791 15.06391837    19
